IRIDIUM 112             
1 41925U 17003J   26027.75928435  .00000200  00000+0  64449-4 0  9994
2 41925  86.4017 147.0030 0002081 101.8880 258.2549 14.34218186473143
IRIDIUM 111             
1 41926U 17003K   26027.74660045  .00000095  00000+0  26897-4 0  9991
2 41926  86.4020 147.0758 0002135  96.3624 263.7815 14.34217707473122
IRIDIUM 113             
1 42803U 17039A   26027.51725760  .00000106  00000+0  30916-4 0  9996
2 42803  86.3965  20.9508 0002247  90.6192 269.5261 14.34217614451028
IRIDIUM 123             
1 42804U 17039B   26027.48896746  .00000246  00000+0  80638-4 0  9997
2 42804  86.3927  52.4417 0002392  87.2297 272.9173 14.34217895449786
IRIDIUM 120             
1 42805U 17039C   26027.51091654  .00000385  00000+0  13040-3 0  9993
2 42805  86.3955  20.7537 0002006  81.6851 278.4572 14.34218893451017
IRIDIUM 115             
1 42806U 17039D   26027.72361181  .00000549  00000+0  15728-3 0  9999
2 42806  86.4493  20.7741 0002483  78.6896 281.4584 14.43270754454000
IRIDIUM 118             
1 42807U 17039E   26027.52067890  .00000229  00000+0  74769-4 0  9994
2 42807  86.3927  52.4272 0002289  94.4135 265.7322 14.34217656449785
IRIDIUM 117             
1 42808U 17039F   26027.81878138  .00000370  00000+0  12522-3 0  9997
2 42808  86.3928  52.2614 0002379  89.8174 270.3295 14.34219067449853
